sat_config_name,tle_name,norad_id,horizons_id,epoch_tle,t_obs,delta_t_min,incl_deg,raan_deg,ecc,argp_deg,M_deg,mean_motion_rev_per_day,x_sgp4,y_sgp4,z_sgp4,vx_sgp4,vy_sgp4,vz_sgp4,x_true,y_true,z_true,vx_true,vy_true,vz_true,err_x,err_y,err_z,err_vx,err_vy,err_vz,err_norm,horizons_ok,line1,line2
CHANDRA,CXO,25867,-151,2025-11-29T09:28:09.054336+00:00,2025-11-30T03:28:09.054336+00:00,1080.0,52.7584,123.0489,0.8164697,310.7158,0.2585,0.37803381,-28166.857430976674,-84808.2403192486,91551.38660949995,0.3924791859807626,-1.0280581228366157,0.29464462552208887,-28161.52553924264,-84802.23879279362,91546.74190339551,0.39181669605704716,-1.02855931103468,0.2953192192759435,-5.331891734032979,-6.001526454972918,4.644706104445504,0.0006624899237154258,0.0005011881980643285,-0.0006745937538546465,9.274733637677274,True,1 25867U 99040B   25333.39454924  .00000722  00000+0  00000+0 0  9995,2 25867  52.7584 123.0489 8164697 310.7158   0.2585  0.37803381 16565
CHANDRA,CXO,25867,-151,2025-11-29T09:28:09.054336+00:00,2025-11-30T03:33:09.054336+00:00,1085.0,52.7584,123.0489,0.8164697,310.7158,0.2585,0.37803381,-28048.924612050174,-85116.0117760546,91639.10884232678,0.39407872106935,-1.0232178546745296,0.2894254915960853,-28043.74047721897,-85110.08032306572,91634.55398127639,0.3934144710479956,-1.0237193150037815,0.2900987469251993,-5.184134831204574,-5.931452988879755,4.554861050390173,0.0006642500213543956,0.0005014603292519126,-0.0006732553291139975,9.099678439140611,True,1 25867U 99040B   25333.39454924  .00000722  00000+0  00000+0 0  9995,2 25867  52.7584 123.0489 8164697 310.7158   0.2585  0.37803381 16565
CHANDRA,CXO,25867,-151,2025-11-29T09:28:09.054336+00:00,2025-11-30T03:38:09.054336+00:00,1090.0,52.7584,123.0489,0.8164697,310.7158,0.2585,0.37803381,-27930.51443679952,-85422.33209130858,91725.26806590313,0.3956625883023467,-1.018387333114164,0.28423068462465234,-27925.478421827665,-85416.47136082564,91720.80358542938,0.3949965763731254,-1.01888906637962,0.2849026023709052,-5.036014971854456,-5.860730482934741,4.464480473747244,0.0006660119292212774,0.0005017332654559947,-0.0006719177462528592,8.92419153149534,True,1 25867U 99040B   25333.39454924  .00000722  00000+0  00000+0 0  9995,2 25867  52.7584 123.0489 8164697 310.7158   0.2585  0.37803381 16565
CHANDRA,CXO,25867,-151,2025-11-29T09:28:09.054336+00:00,2025-11-30T03:43:09.054336+00:00,1095.0,52.7584,123.0489,0.8164697,310.7158,0.2585,0.37803381,-27811.631580130626,-85727.20417352846,91809.87153821139,0.3972309661868256,-1.013566437388195,0.27905992063178525,-27806.744078863023,-85721.41473025622,91805.49794858418,0.39656319012743213,-1.014068445740183,0.27973050301246055,-4.887501267603511,-5.789443272238714,4.3735896272119135,0.0006677760593934434,0.0005020083519879925,-0.0006705823806752997,8.74834888825038,True,1 25867U 99040B   25333.39454924  .00000722  00000+0  00000+0 0  9995,2 25867  52.7584 123.0489 8164697 310.7158   0.2585  0.37803381 16565
CHANDRA,CXO,25867,-151,2025-11-29T09:28:09.054336+00:00,2025-11-30T03:48:09.054336+00:00,1100.0,52.7584,123.0489,0.8164697,310.7158,0.2585,0.37803381,-27692.28066385747,-86030.63089512612,91892.92643264255,0.3987840300652795,-1.0087550477872445,0.2739129199064826,-27687.5420375201,-86024.91338333735,91888.64426473324,0.39811448808586175,-1.0092573321347695,0.27458216773675553,-4.7386263373700785,-5.717511788767297,4.282167909303098,0.0006695419794177648,0.0005022843475250838,-0.0006692478302729454,8.572134076376527,True,1 25867U 99040B   25333.39454924  .00000722  00000+0  00000+0 0  9995,2 25867  52.7584 123.0489 8164697 310.7158   0.2585  0.37803381 16565
CHANDRA,CXO,25867,-151,2025-11-29T09:28:09.054336+00:00,2025-11-30T03:53:09.054336+00:00,1105.0,52.7584,123.0489,0.8164697,310.7158,0.2585,0.37803381,-27572.466257623375,-86332.61509272947,91974.43983926346,0.4003219521828262,-1.0039530456444368,0.2687894069174616,-27567.87689871306,-86326.970073008,91970.24959953286,0.39965064208953716,-1.0044556082403995,0.2694573223817866,-4.589358910314331,-5.645019721472636,4.190239730596659,0.0006713100932890237,0.0005025625959627078,-0.0006679154643249863,8.395628139893244,True,1 25867U 99040B   25333.39454924  .00000722  00000+0  00000+0 0  9995,2 25867  52.7584 123.0489 8164697 310.7158   0.2585  0.37803381 16565
CHANDRA,CXO,25867,-151,2025-11-29T09:28:09.054336+00:00,2025-11-30T03:58:09.054336+00:00,1110.0,52.7584,123.0489,0.8164697,310.7158,0.2585,0.37803381,-27452.192879856033,-86633.15956748214,92054.41876605868,0.40184490175204257,-0.9991603133203844,0.2636891102299468,-27447.753147988184,-86627.58767940271,92050.3209808403,0.40117182177700544,-0.9996631551799248,0.26435569412444077,-4.439731867849332,-5.5718880794302095,4.097785218371428,0.0006730799750371275,0.0005028418595404149,-0.0006665838944939773,8.218819837665063,True,1 25867U 99040B   25333.39454924  .00000722  00000+0  00000+0 0  9995,2 25867  52.7584 123.0489 8164697 310.7158   0.2585  0.37803381 16565
CHANDRA,CXO,25867,-151,2025-11-29T09:28:09.054336+00:00,2025-11-30T04:03:09.054336+00:00,1115.0,52.7584,123.0489,0.8164697,310.7158,0.2585,0.37803381,-27331.464998626623,-86932.26708536186,92132.87014014841,0.4033530450169963,-0.9943767341879686,0.25861176242446987,-27327.175284819652,-86926.76888604191,92128.8653123567,0.40267819299964325,-0.9948798576593603,0.25927701689814725,-4.289713806971122,-5.498199319947162,4.0048277917085215,0.000674852017353067,0.0005031234713916977,-0.0006652544736773791,8.04179618921215,True,1 25867U 99040B   25333.39454924  .00000722  00000+0  00000+0 0  9995,2 25867  52.7584 123.0489 8164697 310.7158   0.2585  0.37803381 16565
CHANDRA,CXO,25867,-151,2025-11-29T09:28:09.054336+00:00,2025-11-30T04:08:09.054336+00:00,1120.0,52.7584,123.0489,0.8164697,310.7158,0.2585,0.37803381,-27210.287032554705,-87229.94037747657,92209.80080898106,0.4048465453148748,-0.9896021926175975,0.25355710001757664,-27206.147711108944,-87224.51646225278,92205.88945035449,0.40416991931382873,-0.9901055994600427,0.2542210265261342,-4.139321445760288,-5.423915223786025,3.9113586265739286,0.0006766260010460656,0.0005034068424452087,-0.0006639265085575663,7.8645765742233795,True,1 25867U 99040B   25333.39454924  .00000722  00000+0  00000+0 0  9995,2 25867  52.7584 123.0489 8164697 310.7158   0.2585  0.37803381 16565
CHANDRA,CXO,25867,-151,2025-11-29T09:28:09.054336+00:00,2025-11-30T04:13:09.054336+00:00,1125.0,52.7584,123.0489,0.8164697,310.7158,0.2585,0.37803381,-27088.663351665622,-87526.18214036235,92285.21754150328,0.4063255631363637,-0.9848365739624911,0.24852486338446433,-27084.67477990524,-87520.83314215539,92281.40017184787,0.405647161421945,-0.9853402653499556,0.2491874627030701,-3.9885717603829107,-5.34899820695864,3.81736965541495,0.000678401714418686,0.0005036913874644222,-0.0006625993186057666,7.687183983218669,True,1 25867U 99040B   25333.39454924  .00000722  00000+0  00000+0 0  9995,2 25867  52.7584 123.0489 8164697 310.7158   0.2585  0.37803381 16565
CHANDRA,CXO,25867,-151,2025-11-29T09:28:09.054336+00:00,2025-11-30T04:18:09.054336+00:00,1130.0,52.7584,123.0489,0.8164697,310.7158,0.2585,0.37803381,-26966.59827824267,-87820.99503627501,92359.12702930695,0.40779025618432796,-0.9800797645441829,0.2435147966834277,-26962.760845255456,-87815.72150693499,92355.40414635833,0.4071100766477559,-0.9805837429753306,0.2441760709245828,-3.8374329872131057,-5.273529340018285,3.7228829486266477,0.0006801795365720675,0.0005039784311476891,-0.0006612742411550854,7.509717776358845,True,1 25867U 99040B   25333.39454924  .00000722  00000+0  00000+0 0  9995,2 25867  52.7584 123.0489 8164697 310.7158   0.2585  0.37803381 16565
CHANDRA,CXO,25867,-151,2025-11-29T09:28:09.054336+00:00,2025-11-30T04:23:09.054336+00:00,1135.0,52.7584,123.0489,0.8164697,310.7158,0.2585,0.37803381,-26844.09608764601,-88114.38169348154,92431.53588775305,0.40924077943117165,-0.9753316516381149,0.23852664778209076,-26840.410149212352,-88109.18426193988,92427.90800719618,0.4085588203715169,-0.9758359183898522,0.23918659771023848,-3.685938433656702,-5.197431541659171,3.6278805568726966,0.0006819590596547354,0.0005042667517373145,-0.0006599499281477184,7.332186174796449,True,1 25867U 99040B   25333.39454924  .00000722  00000+0  00000+0 0  9995,2 25867  52.7584 123.0489 8164697 310.7158   0.2585  0.37803381 16565
CHANDRA,CXO,25867,-151,2025-11-29T09:28:09.054336+00:00,2025-11-30T04:28:09.054336+00:00,1140.0,52.7584,123.0489,0.8164697,310.7158,0.2585,0.37803381,-26721.161009121737,-88406.34470654502,92502.45065707479,0.4106772851746612,-0.9705921234594351,0.23356016818538908,-26717.626953255523,-88401.2239210421,92498.91827328035,0.4099935445182021,-0.971096681136399,0.23421879590073008,-3.5340558662137482,-5.120785502920626,3.5323837944451952,0.0006837406564590975,0.0005045576769638904,-0.0006586277153410036,7.154699875166036,True,1 25867U 99040B   25333.39454924  .00000722  00000+0  00000+0 0  9995,2 25867  52.7584 123.0489 8164697 310.7158   0.2585  0.37803381 16565
CHANDRA,CXO,25867,-151,2025-11-29T09:28:09.054336+00:00,2025-11-30T04:33:09.054336+00:00,1145.0,52.7584,123.0489,0.8164697,310.7158,0.2585,0.37803381,-26597.797226614068,-88696.88663659911,92571.87780345809,0.41209992309210913,-0.9658610691490392,0.22861511296522044,-26594.41540761804,-88691.84312224608,92568.4414281251,0.4114143991686485,-0.9663659191313998,0.22927241922618877,-3.381818996029324,-5.04351435303397,3.436375332996249,0.000685523923460607,0.0005048499823605557,-0.0006573062609683267,6.977278278841222,True,1 25867U 99040B   25333.39454924  .00000722  00000+0  00000+0 0  9995,2 25867  52.7584 123.0489 8164697 310.7158   0.2585  0.37803381 16565
